{"type":"FeatureCollection","properties":{"source":"Benden, P. (2022). Global Shipping Lanes [Data set]. Zenodo. https://doi.org/10.5281/zenodo.6361763","derivedFrom":"CIA Map of The Worlds Oceans, October 2012","license":"CC BY-SA 4.0 (excludes Statista)","note":"Filtered to 14 of 52 Major-tier segments (longest / most globally representative) from the original dataset for restrained web-map display."},"features":[{"type":"Feature","properties":{},"geometry":{"type":"LineString","coordinates":[[-6.733339816999944,35.893992971000046],[-7.440773220999972,35.86988631400004],[-8.142454903999976,35.85517756200005],[-8.263444001999972,35.85239954700006],[-8.384474411999975,35.84949217600007],[-8.505545922999943,35.84645540500003],[-8.626658328999952,35.843289189000075],[-8.747811418999959,35.83999348200007],[-8.869004984999947,35.83656823900003],[-8.990238810999926,35.83301341500004],[-9.111512683999933,35.82932896400007],[-9.232826391999936,35.825514842000075],[-9.354179716999965,35.82157100300003],[-9.47557244099994,35.81749740200007],[-9.597004345999949,35.81329399400005],[-9.718475212999977,35.80896073400004],[-9.839984817999948,35.80449757700006],[-9.961532941999963,35.79990447700004],[-10.083119359999955,35.795181392000075],[-10.204743845999928,35.790328274000046],[-10.326406173999942,35.785345079000024],[-10.448106118999931,35.78023176200003],[-10.56984345099994,35.77498827900007],[-10.691617937999979,35.769614585000056],[-10.813429351999957,35.764110634000076],[-10.935277458999963,35.75847638400006],[-11.057162026999947,35.75271178700007],[-11.179082818999973,35.74681680100008],[-11.301039601999946,35.740791380000076],[-11.42303213699995,35.734635480000065],[-11.545060184999954,35.728349055000024],[-11.667123508999964,35.72193206400004],[-11.789221865999934,35.715384458000074],[-11.911355015999959,35.70870619600004],[-12.033522714999947,35.70189723200008],[-12.155724718999977,35.69495752200004],[-12.277960783999958,35.68788702100005],[-12.400230661999956,35.68068568600006],[-12.522534104999977,35.67335347300008],[-12.644870866999952,35.66589033500003],[-12.76724069599993,35.658296232000055],[-12.889643340999953,35.65057111500005],[-13.012078551999934,35.642714943000044],[-13.134546072999967,35.634727672000054],[-13.257045651999931,35.62660925600005],[-13.379577032999975,35.61835965300003],[-13.502139958999976,35.60997881800006],[-13.624734172999979,35.60146670600005],[-13.747359415999938,35.59282327500006],[-13.870015427999931,35.584048481000025],[-13.99270194899998,35.575142278000044],[-14.115418716999955,35.56610462500004],[-14.238165468999966,35.556935475000046],[-14.360941939999975,35.54763478800004],[-14.48374786599993,35.53820251700006],[-14.606582981999964,35.52863862000004],[-14.729447017999973,35.518943053000044],[-14.852339708999978,35.509115773000076],[-14.975260783999943,35.49915673500004],[-15.098209973999928,35.48906589500007],[-15.22118700599998,35.47884321200007],[-15.34419160899995,35.46848864200007],[-15.46722350899995,35.45800213900003],[-15.59028243299997,35.44738366200005],[-15.713368105999962,35.436633167000025],[-15.836480250999955,35.42575061100007],[-15.959618589999934,35.41473595000008],[-16.077770907999934,35.404042762000074],[-16.08278284599993,35.403589141000054],[-16.205972739999936,35.39231014000006],[-16.32918799199996,35.38089890600003],[-16.452428320999957,35.369355393000035],[-16.575693444999956,35.357679560000065],[-16.698983079999948,35.34587136300007],[-16.82229694299997,35.333930760000044],[-16.945634749999954,35.32185770500007],[-17.06899621499997,35.30965215800006],[-17.192381050999927,35.29731407600008],[-17.31578896999997,35.28484341500007],[-17.439219683999966,35.272240132000036],[-17.562672904999943,35.259504185000026],[-17.686148340999978,35.24663553000005],[-17.809645701999955,35.23363412500004],[-17.93316469599995,35.22049992700005],[-18.056705028999943,35.207232893000025],[-18.180266408999955,35.19383298200006],[-18.30384854099998,35.18030014900006],[-18.42745112999995,35.16663435300006],[-18.551073877999954,35.15283555100007],[-18.674716488999934,35.13890370000007],[-18.798378664999973,35.124838759000056],[-18.922060106999936,35.11064068400003],[-19.045760516999962,35.096309433000044],[-19.169479593999938,35.08184496300004],[-19.29321703499994,35.06724723200006],[-19.416972537999982,35.052516199000024],[-19.540745802999936,35.03765182200004],[-19.66453652499996,35.02265405500003],[-19.788344398999982,35.00752286000005],[-19.91221576399994,34.99227065900004],[-20.03614923899994,34.97689716100007],[-20.160098999999946,34.96139016400008],[-20.28406472499995,34.945749625000076],[-20.40804608999997,34.929975497000044],[-20.532042769999975,34.914067733000024],[-20.65605444099998,34.89802628800004],[-20.780080775999977,34.88185111700005],[-20.904121447999955,34.86554217300005],[-21.028176129999963,34.849099410000065],[-21.152244493999945,34.83252278100008],[-21.27632621099997,34.81581224200005],[-21.400420949999955,34.79896774400004],[-21.524528379999936,34.781989245000034],[-21.648648170999934,34.764876695000055],[-21.772779989999947,34.747630051000044],[-21.89692350399997,34.730249266000044],[-22.02107837899996,34.71273429400003],[-22.145244280999975,34.69508508800004],[-22.269420873999934,34.677301604000036],[-22.393607824999947,34.659383794000064],[-22.51780479499996,34.641331612000045],[-22.64201144599997,34.623145015000034],[-22.766227440999955,34.60482395300005],[-22.89045244099998,34.586368383000035],[-23.014686107999978,34.56777825700004],[-23.138928100999976,34.54905353000004],[-23.263178078999942,34.53019415500006],[-23.38743569999997,34.51120008700008],[-23.511700623999957,34.49207128100005],[-23.635972506999963,34.472807689000035],[-23.76025100499993,34.45340926600005],[-23.88453577499996,34.43387596500003],[-24.00882647399993,34.41420774100004],[-24.133122753999942,34.39440454800007],[-24.257424269999944,34.374466340000026],[-24.38173067699995,34.35439307000007],[-24.506041625999956,34.334184693000054],[-24.630356769999935,34.313841162000074],[-24.754675762999966,34.29336243200004],[-24.878998252999963,34.272748458000024],[-25.00332389299996,34.25199919100004],[-25.12765233199997,34.231114587000036],[-25.251983219999943,34.21009460000005],[-25.376316204999966,34.18893918400005],[-25.500650936999932,34.167648291000035],[-25.624987062999935,34.14622187800006],[-25.749324230999946,34.12465989700007],[-25.873662086999957,34.10296230300003],[-25.99800027899994,34.08112905000007],[-26.122338449999972,34.059160090000034],[-26.24667624899996,34.03705538000003],[-26.37101331899993,34.014814872000045],[-26.495349303999944,33.992438520000064],[-26.619683848999955,33.96992628000004],[-26.744016595999938,33.94727810300003],[-26.86834719099994,33.92449394500005],[-26.99267527199993,33.901573760000076],[-27.11700048399996,33.878517500000044],[-27.241322468999954,33.85532512200007],[-27.365640867999957,33.83199657800003],[-27.489955320999968,33.80853182200008],[-27.614265467999928,33.78493080900006],[-27.73857094999994,33.761193493000064],[-27.862871405999954,33.73731982600003],[-27.98716647499998,33.713309765000076],[-28.111455795999973,33.68916326200008],[-28.23573900799994,33.66488027100007],[-28.360015747999967,33.64046074600003],[-28.48428565499995,33.61590464100004],[-28.608548363999944,33.59121191200006],[-28.732803513999954,33.56638251100003],[-28.857050740999966,33.54141639100004],[-28.981289680999964,33.51631350900004],[-29.105519968999943,33.49107381700003],[-29.229741242999978,33.46569726800004],[-29.353953135999973,33.440183819000026],[-29.478155283999968,33.414533421000044],[-29.60234731999998,33.38874603000005],[-29.72652888099998,33.36282159900003],[-29.850699598999938,33.33676008300006],[-29.974859107999976,33.31056143500007],[-30.099007042999972,33.28422560800004],[-30.223143034999964,33.25775255900004],[-30.347266717999958,33.231142239000064],[-30.47137772399998,33.20439460400007],[-30.59547568499994,33.17750960700005],[-30.71956023599995,33.15048720300007],[-30.843631006999942,33.123327344000074],[-30.967687627999965,33.09602998500003],[-31.091729732999966,33.06859508100007],[-31.215756951999936,33.041022586000054],[-31.339768916999958,33.01331245200004],[-31.463765256999977,32.98546463500003],[-31.587745604999952,32.957479086000035],[-31.71170958999994,32.929355763000046],[-31.835656841999935,32.90109461900005],[-31.95958699099998,32.87269560500005],[-32.083499666999955,32.84415867900003],[-32.20739450199994,32.815483792000066],[-32.331271122999965,32.78667089900006],[-32.455129158999966,32.75771995500003],[-32.578968240999984,32.72863091200003],[-32.70278799799996,32.69940372600007],[-32.82658805799997,32.67003834900004],[-32.95036805099994,32.64053473700005],[-33.074127604999944,32.610892843000045],[-33.19786634899998,32.581112621000045],[-33.32158391099995,32.55119402500003],[-33.44527992099995,32.52113700800004],[-33.568954004999966,32.490941527000075],[-33.692605792999984,32.46060753200004],[-33.81623491299996,32.43013498000005],[-33.93984099199997,32.39952382400003],[-34.063423659999955,32.36877401800007],[-34.18698254399993,32.33788551600003],[-34.310517269999934,32.306858272000056],[-34.43402746899994,32.27569224000007],[-34.55751276899997,32.24438737300005],[-34.680972794999946,32.21294362700007],[-34.804407175999984,32.18136095400007],[-34.92781553999998,32.149639310000055],[-35.051197516999935,32.11777864700008],[-35.17455273099995,32.08577892000005],[-35.29788081099997,32.05364008400005],[-35.421181385999944,32.02136209100007],[-35.54445408299995,31.988944896000078],[-35.66769852999994,31.956388452000056],[-35.79091435399994,31.923692715000072],[-35.914101184999936,31.890857638000057],[-36.03725864799998,31.85788317400005],[-36.16038637199995,31.824769278000076],[-36.283483985999965,31.79151590400005],[-36.406551116999935,31.758123006000062],[-36.529587394999965,31.72459053700004],[-36.65259244499998,31.69091845300005],[-36.77556589699998,31.657106706000036],[-36.898507379999955,31.62315525100007],[-37.021416520999935,31.589064042000075],[-37.144292949999965,31.554833032000033],[-37.267136293999954,31.520462175000034],[-37.38994618299995,31.485951427000032],[-37.51272224499996,31.45130074100007],[-37.63546410899994,31.416510070000072],[-37.758171405999974,31.381579370000054],[-37.880843761999984,31.346508592000077],[-38.00348080799995,31.31129769300003],[-38.126082173999976,31.275946625000074],[-38.24864748799996,31.240455343000065],[-38.37117638199993,31.204823800000042],[-38.493668482999965,31.16905195100003],[-38.616123422999976,31.133139750000055],[-38.738540832999945,31.09708715100004],[-38.86092034199993,31.060894107000024],[-38.983261580999965,31.02456057200004],[-39.10556417999993,30.988086501000055],[-39.227827771999955,30.95147184800004],[-39.35005198599998,30.91471656600004],[-39.47223645499997,30.87782061000007],[-39.59438080999996,30.840783934000058],[-39.71648468199993,30.80360649100004],[-40.34018717499998,30.612631303000057],[-40.960712841999964,30.418648474000065],[-41.18119445199994,30.34867799700004],[-41.401493279999954,30.27830060000008],[-41.62160591899993,30.207518398000047],[-41.84152898499997,30.13633350500004],[-42.06125911999993,30.06474803800006],[-42.28075245799994,29.992764110000053],[-42.499688737999975,29.920383836000042],[-42.71843360399998,29.847609331000058],[-42.936983933999954,29.774442712000052],[-43.155336630999955,29.70088609100003],[-43.37348861799995,29.626941584000065],[-43.59143684399993,29.552611306000074],[-43.80917828199995,29.47789737200003],[-44.02670992599997,29.402801897000074],[-44.24402879599995,29.327326995000078],[-44.46113193499997,29.25147478200006],[-44.67801641199998,29.175247372000058],[-44.89467931499996,29.098646880000047],[-45.111117760999946,29.021675422000044],[-45.327328885999975,28.944335111000044],[-45.54330985299998,28.866628063000064],[-45.75905784899993,28.788556394000068],[-45.974570083999936,28.71012221700005],[-46.18984379199998,28.631327648000024],[-46.404876230999946,28.552174800000046],[-46.61966468099996,28.472665791000054],[-46.83420645099994,28.392802734000043],[-47.04849886799997,28.31258774300005],[-47.26253928699998,28.232022935000032],[-47.476325085999974,28.151110424000024],[-47.68985366399994,28.069852325000056],[-47.903122450999945,27.988250752000056],[-48.11612889199995,27.90630782100004],[-48.32887046199994,27.824025646000052],[-48.54134465699997,27.74140634300005],[-48.753548999999964,27.658452026000077],[-48.965481032999946,27.575164810000047],[-49.17713832599998,27.491546810000045],[-49.38851846999995,27.407600140000056],[-49.59961908099996,27.323326918000078],[-49.81043779899994,27.238729256000056],[-50.02097228599996,27.153809269000078],[-50.23122022899997,27.06856907300005],[-50.44117933799998,26.983010781000075],[-50.65084734699997,26.897136510000053],[-50.86022201299994,26.810948375000066],[-51.06930111599996,26.724448489000054],[-51.27808245799997,26.63763896900008],[-51.48656386999994,26.550521927000034],[-51.69474319599993,26.463099482000075],[-51.90261831399994,26.375373745000047],[-52.11018711899993,26.287346833000072],[-52.31744752999998,26.199020860000076],[-52.524397488999966,26.11039794100003],[-52.73103495999993,26.02148019200007],[-52.93735793199994,25.93226972700006],[-53.14336441499995,25.842768661000036],[-53.34905244199996,25.752979109000023],[-53.55442007099998,25.662903184000072],[-53.75946537599998,25.572543004000067],[-53.96418645999995,25.48190068200006],[-54.16858144499997,25.390978334000067],[-54.37264847499995,25.299778073000027],[-54.57638571999996,25.20830201600006],[-54.77979136699997,25.11655227700004],[-54.98286362699997,25.024530972000036],[-55.18403773299997,24.932240213000057],[-55.38438074499999,24.839682117000052],[-55.584468913999956,24.74685879900005],[-55.784300719999976,24.653772374000027],[-55.983874656999944,24.560424956000077],[-56.18318922699996,24.46681865900007],[-56.38224294499997,24.372955601000058],[-56.58103433799994,24.27883789400005],[-56.77956194199999,24.18446765400006],[-56.97782430299998,24.089846996000063],[-57.17581998199995,23.99497803500003],[-57.37354754699999,23.89986288500006],[-57.57100557999996,23.80450366100007],[-57.76819266799998,23.708902480000063],[-57.96510741599997,23.613061454000047],[-58.16174843699997,23.51698269900004],[-58.35811435199997,23.42066833100006],[-58.55420379499998,23.324120463000042],[-58.750015410999936,23.227341211000066],[-58.94554785499997,23.130332690000046],[-59.14079979099995,23.033097014000077],[-59.33576989499994,22.935636299000066],[-59.530456853999965,22.83795266000004],[-59.724859364999986,22.740048210000054],[-59.918976131999955,22.641925065000066],[-60.112805874999935,22.54358534200003],[-60.306347320999976,22.44503115200007],[-60.49959920499998,22.346264613000073],[-60.69256027599994,22.247287837000044],[-60.88522929099997,22.148102942000037],[-61.077605017999986,22.048712041000044],[-61.26968623499994,21.94911724900004],[-61.461471727999935,21.84932068200004],[-61.65296029499996,21.749324454000032],[-61.84415074399993,21.64913068000004],[-62.035041889999945,21.548741475000043],[-62.22563256099994,21.448158953000075],[-62.41592159299995,21.347385231000032],[-62.60590782999998,21.246422422000023],[-62.79559012899995,21.145272641000076],[-62.98496735499998,21.04393800400004],[-63.174038380999946,20.94242062400008],[-63.36280209199998,20.84072261800003],[-63.55125737999998,20.738846100000046],[-63.73940314599997,20.636793186000034],[-63.92723830399996,20.534565988000054],[-64.11476177299994,20.432166624000047],[-64.30197248299999,20.329597207000063],[-64.48886937299994,20.226859852000075],[-64.67545138999998,20.123956675000045],[-64.86171749099998,20.02088979100006],[-65.04836697199994,19.917661313000053],[-65.23484063099994,19.814273357000047],[-65.42095569099996,19.71072803800007],[-65.60671122899998,19.607027471000038],[-65.79210633499997,19.503173770000046],[-65.97714010499993,19.399169052000047],[-66.16181165399996,19.295015430000035],[-66.34612010299998,19.19071501800005],[-66.53006458799996,19.08626993400003],[-66.71364425499996,18.981682291000027],[-66.89685826199997,18.876954203000025],[-67.41017148799995,18.580707670000038],[-67.92090251399998,18.284475471000064],[-71.37521833199997,31.248404636000032],[-72.53404305499998,39.36300187100005],[-74.01161582699996,40.43822928900005],[-73.90289773899997,39.39661736000005],[-72.72614709199996,28.101555096000027],[-71.36415014099998,21.754568205000055],[-71.77885762799997,20.737606146000076],[-73.64071664499994,20.682948405000047],[-74.27848953699998,20.828617351000048]]}},{"type":"Feature","properties":{},"geometry":{"type":"LineString","coordinates":[[-34.85759679699993,-8.13737959499997],[-34.67436962399995,-8.070254808999948],[-34.674368303999984,-8.070249185999955],[-25.630149081999946,16.957174956000074],[-25.483361960999957,17.286788839000053],[-25.337770409999962,17.616515286000038],[-25.190650972999947,17.94635471500004],[-24.99966827399993,18.37701545400006],[-24.806104355999935,18.807669188000034],[-24.411254697999937,19.66897126500004],[-24.211280570999975,20.099627421000037],[-24.013673022999967,20.53029219600006],[-23.81449352599998,20.960969498000054],[-23.714317912999945,21.17631406600003],[-23.61375363899998,21.39166323200004],[-23.512802129999955,21.60701748100007],[-23.41146480499998,21.822377304000042],[-23.30974307599996,22.037743189000025],[-23.207638347999932,22.253115622000053],[-23.10515201499993,22.468495094000048],[-23.002285469999947,22.683882092000033],[-22.89904009299994,22.899277104000078],[-22.795417260999955,23.11468061900007],[-22.69141833699996,23.330093126000065],[-22.587044684999967,23.545515112000032],[-22.482297655999957,23.76094706500004],[-22.377178595999965,23.97638947400003],[-22.271688839999968,24.191842828000063],[-22.165829720999966,24.407307615000036],[-22.059602561999952,24.62278432100004],[-21.953008676999957,24.838273438000044],[-21.79133603799994,25.164524149000044],[-21.62771737299994,25.490788158000043],[-21.521665320999944,25.702258882000024],[-21.415052825999965,25.91379898100007],[-21.307886192999945,26.125408640000046],[-21.20017170999995,26.33708804300005],[-21.09191564799994,26.548837373000026],[-20.983124261999933,26.76065681700004],[-20.873803788999965,26.972546558000033],[-20.763960450999946,27.18450678100004],[-20.653600452999967,27.396537671000033],[-20.542729986999973,27.60863941200006],[-20.431355225999937,27.820812189000037],[-20.31948233199995,28.033056187000057],[-20.20711745099993,28.245371590000047],[-20.094266716999982,28.457758582000054],[-19.980936245999942,28.67021734900004],[-19.86713214399998,28.882748075000052],[-19.752860505999934,29.095350944000074],[-19.638127407999946,29.308026141000028],[-19.522938919999945,29.52077385000007],[-19.40730109699996,29.73359425700005],[-19.291219981999973,29.94648754600007],[-19.17357990499994,30.159453901000063],[-19.05501912999995,30.37249350700006],[-18.935903224999947,30.585606548000044],[-18.816237394999973,30.79879321100003],[-18.696026823999944,31.01205367700004],[-18.57527667499994,31.225388133000024],[-18.45399208699996,31.438796763000028],[-18.33217818199995,31.652279752000027],[-18.209840059999976,31.865837283000076],[-18.086982800999976,32.07946954200003],[-17.96361146299995,32.293176714000026],[-17.77531367299997,32.614450601000044],[-17.58702861599994,32.93537101700008],[-17.395991034999952,33.255952498000056],[-17.204891651999958,33.576307608000036],[-17.080571546999977,33.783254930000055],[-16.95532424499993,33.99021141600008],[-16.829143814999952,34.19717743100006],[-16.70202425499997,34.40415333100003],[-16.573959487999957,34.61113947500007],[-16.44494336599996,34.818136225000046],[-16.315126608999947,35.02518476400007],[-16.185541875999945,35.23255551300008],[-16.077770907999934,35.404042762000074],[-16.055095367999968,35.43996576400008],[-15.923780922999981,35.647415892000026],[-15.791592309999942,35.854906275000076],[-15.658523226999932,36.06243728900006],[-15.524567304999948,36.270009310000034],[-15.389718100999971,36.47762271600004],[-15.253969103999964,36.685277883000026],[-15.117313726999953,36.89297519100006],[-14.979745310999931,37.10071501300007],[-14.84125712399998,37.308497732000035],[-14.70184235499994,37.51632372200004],[-14.561494120999953,37.72419336200005],[-14.420205456999952,37.93210703300008],[-14.277969325999948,38.14006511000008],[-14.134778604999951,38.34806797300007],[-13.990626095999971,38.55611600200007],[-13.871903832999976,38.72648803800007],[-13.845504515999949,38.76420957500005],[-13.699406503999967,38.97234907300003],[-13.55232461099996,39.180534874000045],[-13.404251306999981,39.38876735800005],[-13.255178974999978,39.59704690700005],[-13.105099910999968,39.805373899000074],[-12.953880564999963,40.013782314000025],[-12.799765897999976,40.22273744100005],[-12.570053500999961,40.534783951000065],[-12.337440575999949,40.84639057700008],[-12.179372369999953,41.05521586000003],[-12.020434226999953,41.26403617100004],[-11.86055919499995,41.47285632100005],[-11.699679853999953,41.68168112500007],[-11.537728300999959,41.890515407000066],[-11.374636149999958,42.09936399700007],[-11.210334510999928,42.308231731000035],[-11.044753991999926,42.51712345200008],[-10.877824678999957,42.72604401000007],[-10.709476132999953,42.93499826000004],[-10.539637372999948,43.14399106600007],[-10.368236871999954,43.35302729700004],[-10.195202543999926,43.56211182800007],[-10.02046172799993,43.771249545000046],[-9.84394118399996,43.98044533400008],[-9.665567075999945,44.189704092000056],[-9.485264966999978,44.39903072300007],[-9.302959795999925,44.60843013600004],[-9.118575876999955,44.81790724700005],[-8.932588045999978,45.027535009000076],[-8.748232560999952,45.23772636800004],[-8.561940366999977,45.44805443800004],[-8.373636320999935,45.658524311000065],[-8.183244698999943,45.86914108700006],[-7.990689174999943,46.07990988100005],[-7.79589281799997,46.29083581700007],[-7.598778079999931,46.501924030000055],[-7.3992667759999335,46.713179670000045],[-7.197280083999942,46.92460789800003],[-6.9927385259999255,47.13621388200005],[-6.78556195699997,47.34800280800005],[-6.57566955599998,47.559979869000074],[-6.280572369999959,47.85761400100006],[-5.981912536999971,48.15441021400005],[-5.675363672999936,48.45500940200003],[0.8511815590000538,50.74869852300003],[4.677502222000044,53.70774545200004],[7.174522994000029,57.04005339400004],[10.575215239000045,58.276790324000046],[11.449264265000068,56.38182489600007],[12.53692574300004,54.98677156600007],[15.651368257000058,55.37689178900007],[18.79559796700005,56.75540469200007],[21.55857336400004,59.10152640700005],[22.729170431000057,59.594176221000055],[27.455734990000053,60.00246340400008]]}},{"type":"Feature","properties":{},"geometry":{"type":"LineString","coordinates":[[32.74092530300004,31.27483053000003],[32.740914866000026,31.274824696000053],[32.54100482400003,31.16313918900005],[32.49959004100003,31.02452398300005],[32.51001608100006,30.73411649700006],[32.51014449200005,30.73319848500006],[32.52317917700003,30.689233783000077],[32.52782393500007,30.676761672000055],[32.53143737100004,30.664551946000074],[32.53407397700005,30.652601016000062],[32.535788224000044,30.640905287000066],[32.536634555000035,30.62946117000007],[32.53666739000005,30.618265073000032],[32.53594112700006,30.607313402000045],[32.53451013700004,30.596602569000027],[32.53242877500003,30.58612897900008],[32.52975137300007,30.57588904100004],[32.52653224100004,30.56587916500007],[32.52282567300006,30.556095758000026],[32.51868594300004,30.54653522800004],[32.51416730700004,30.537193985000044],[32.50932400500005,30.52806843600007],[32.504210261000026,30.519154988000025],[32.50191752600006,30.513717074000056],[32.499278150000066,30.50770004000003],[32.49816447500007,30.504225477000034],[32.49704249300004,30.50028483600005],[32.49673216300005,30.495426286000054],[32.496583075000046,30.494508232000044],[32.496430591000035,30.492191947000038],[32.497537245000046,30.486288468000055],[32.497469703000036,30.486175469000045],[32.497988692000035,30.483633308000037],[32.49912840600007,30.48120422900007],[32.50207290600002,30.47448186300005],[32.50374017200005,30.470668756000066],[32.505423937000046,30.468705836000026],[32.50765438500002,30.466036822000035],[32.52416905300004,30.446718300000043],[32.52819181600006,30.440476299000068],[32.531187954000075,30.433655077000026],[32.54336162200008,30.37672489600004],[32.543630445000076,30.376258859000075],[32.55072258300004,30.36065341400007],[32.56734976200005,30.28266572900003],[32.634817611000074,30.20666305900005],[32.655865876000064,30.199138400000038],[32.67610161700003,30.192559894000055],[32.708956417000024,30.182960863000062],[32.71995114300006,30.177284867000026],[32.727673466000056,30.17162249900008],[32.731879572000025,30.16710360500008],[32.73333127300003,30.16502766600007],[32.75613456900004,30.130428470000027],[32.75829074600006,30.126389467000024],[32.76029705600007,30.121178189000034],[32.76148372700004,30.115966788000037],[32.76173035900007,30.111927497000067],[32.76218365300008,30.10346134200006],[32.76251053200008,30.09486840900007],[32.762735434000035,30.086165273000063],[32.76288281300003,30.077368508000063],[32.762977137000064,30.06849469000008],[32.763042889000076,30.05956039600005],[32.76310457000005,30.050582200000065],[32.76318669500006,30.04157667800007],[32.763313796000034,30.032560405000027],[32.763510421000035,30.023549956000068],[32.763801132000026,30.01456190700003],[32.764210512000034,30.005612833000043],[32.76473289200004,29.99671931000006],[32.765372238000054,29.98789791300004],[32.76620519100004,29.97916521700006],[32.76725654000006,29.970537798000066],[32.77869173800008,29.907944198000052],[32.77949012800008,29.900077534000047],[32.77928268800002,29.89110202300003],[32.777651922000075,29.882666520000043],[32.77451455400006,29.874924606000036],[32.769787386000075,29.868029861000025],[32.76496465500003,29.86294467400006],[32.76376561300003,29.861659255000063],[32.761444493000056,29.859695738000028],[32.75630240300006,29.855189566000035],[32.74564430200007,29.846855092000055],[32.73919621700003,29.831346524000026],[32.74420886300004,29.797916987000065],[32.74768851600004,29.775927246000037],[32.72929974200002,29.732198152000024],[32.72698491600005,29.69955843400004],[32.735402124000075,29.555401380000035],[32.742551056000025,29.515263558000072],[32.79508564100007,29.40476952000006],[32.82400706300007,29.341373688000033],[33.13076337500007,28.688069987000063],[33.22877472400006,28.516386557000033],[33.449924914000064,28.184478004000027],[33.51331623400006,28.10303809900006],[33.56368825200008,28.060929850000036],[33.843248138000035,27.82667983300007],[33.88194747400007,27.799145174000046],[33.93649888700003,27.752532277000057],[34.032342397000036,27.65409298000003],[34.47318408000007,27.602440467000065],[34.572140180000076,27.60245555000006],[34.96467925400003,27.777786126000024],[35.09361602100006,27.89733172700005],[35.284884023000075,27.90580662600007],[35.66250565400003,27.45775870800003],[35.94242815700005,26.931835101000047],[36.58978893700004,25.478086493000035],[42.86204038300008,13.51500877500007],[43.57469093800006,12.528251374000035],[45.174130253000044,12.656933805000051],[45.25437409600005,12.624548837000077],[50.91803217800003,12.324635905000036],[51.60735641600007,11.949885212000027],[73.20584054100004,7.30592559300004],[79.99918725200007,5.829985294000039],[80.80228809000005,5.655043419000037],[79.99969529000003,5.829612074000067],[79.99918725200007,5.829985294000039],[76.92062757400004,8.07122987400004],[75.82264403900007,9.789093155000046]]}},{"type":"Feature","properties":{},"geometry":{"type":"LineString","coordinates":[[-17.608797782999943,10.054203335000068],[-17.09872913299995,9.685231023000028],[-16.761107710999966,9.21789927900005],[-16.42414128699994,8.751739276000023],[-16.088110229999927,8.283248683000068],[-15.985805144999972,8.139745879000031],[-15.883421641999973,7.996172812000054],[-15.780962477999935,7.852528039000049],[-15.678430398999978,7.7088101150000625],[-15.575828138999952,7.565017597000065],[-15.473158423999962,7.421149040000046],[-15.370423965999976,7.277203001000032],[-15.267627471999958,7.13317803800004],[-15.164771633999976,6.989072705000069],[-15.061859132999928,6.844885558000044],[-14.958892645999981,6.700615155000037],[-14.855874830999937,6.556260051000038],[-14.752808340999934,6.4118188020000275],[-14.649695819999977,6.267289965000032],[-14.546539893999977,6.12267209700002],[-14.443343186999982,5.977963752000051],[-14.340108308999959,5.833163488000025],[-14.236837858999934,5.688269862000027],[-14.133534424999937,5.543281427000068],[-14.030200586999968,5.398196742000039],[-13.926838913999973,5.253014363000034],[-13.823451961999979,5.107732845000044],[-13.720552203999944,4.9623507450000375],[-13.619021689999954,4.816866619000052],[-13.517361630999972,4.671279024000057],[-13.415574087999971,4.525586515000043],[-13.313661109999941,4.379787648000047],[-13.211624723999932,4.233880981000027],[-13.109466939999947,4.087865070000021],[-13.007189752999977,3.941738469000029],[-12.90479513799994,3.795499737000057],[-12.802285051999945,3.649147428000049],[-12.699661434999939,3.5026801000000205],[-12.596926210999982,3.3560963090000655],[-12.494081281999968,3.2093946100000608],[-12.391128536999929,3.062573559000043],[-12.28806984399995,2.9156317150000746],[-12.18490705499994,2.768567631000053],[-12.081642000999977,2.6213798650000513],[-11.978276497999957,2.4740669740000385],[-11.874812342999974,2.3266275110000265],[-11.771251314999972,2.1790600360000667],[-11.667595174999974,2.0313631030000465],[-11.563845665999963,1.883535269000049],[-11.460004512999944,1.7355750900000544],[-11.356073420999962,1.5874811220000424],[-11.252054079999937,1.4392519220000395],[-11.147948157999963,1.2908860450000361],[-11.043757306999964,1.1423820480000586],[-10.939483160999941,0.9937384880000195],[-10.835127334999981,0.8449539200000231],[-10.730691423999929,0.6960269000000494],[-10.626177005999978,0.5469559860000572],[-10.521585639999955,0.3977397330000372],[-10.416918866999936,0.24837669800007234],[-10.312178207999978,0.09886543500005018],[-10.207365164999942,-0.05079549799995675],[-10.102481223999973,-0.20060754399997904],[-9.997527849999926,-0.3505721479999693],[-9.89250648899997,-0.500690752999958],[-9.787418568999954,-0.6509648029999653],[-9.682265496999946,-0.8013957429999436],[-9.577048662999971,-0.9519850149999343],[-9.471769435999931,-1.102734064999936],[-9.143664688999934,-1.573536277999949],[-8.814698281999938,-2.043195002999937],[-8.710180567999942,-2.19421601199997],[-8.60538258899993,-2.345348155999943],[-8.500304254999946,-2.4965900179999494],[-8.394945483999948,-2.6479401819999566],[-8.289306196999974,-2.799397231999933],[-8.183386323999969,-2.95095975199996],[-8.077185800999928,-3.1026263239999707],[-7.970704569999953,-3.254395532999979],[-7.863942579999957,-3.406265959999928],[-7.756899788999931,-3.558236190999935],[-7.649576156999956,-3.710304808999979],[-7.54197165599993,-3.862470395999935],[-7.434086260999948,-4.014731537999978],[-7.325919957999929,-4.167086815999937],[-7.21747273699998,-4.31953481599993],[-7.108744595999951,-4.472074118999956],[-6.999735539999961,-4.624703308999926],[-6.890445581999927,-4.7774209709999695],[-6.780874740999934,-4.93022568799995],[-6.672235888999978,-5.083116041999972],[-6.564442262999933,-5.236090618999981],[-6.456507768999927,-5.389147999999977],[-6.348433021999938,-5.542286770999965],[-6.24021864599996,-5.695505511999954],[-6.131865268999945,-5.848802809999938],[-6.023373527999979,-6.002177246999963],[-5.914744066999958,-6.15562740699994],[-5.8059775359999435,-6.309151872999962],[-5.697074589999943,-6.46274922799995],[-5.588035895999951,-6.6164180559999295],[-5.478862121999953,-6.770156940999925],[-5.369553947999975,-6.923964466999962],[-5.260112057999947,-7.077839214999926],[-5.1505371459999765,-7.231779770999935],[-5.040829909999957,-7.3857847189999575],[-4.9309910569999715,-7.539852638999946],[-4.821021303999942,-7.693982116999962],[-4.710921367999958,-7.848171736999973],[-4.600691982999933,-8.002420080999968],[-4.490333881999959,-8.156725732999973],[-4.379847810999934,-8.311087276999956],[-4.269234523999955,-8.465503295999952],[-4.15849477699993,-8.61997237299994],[-4.047629340999947,-8.774493092999933],[-3.936638989999949,-8.929064038999968],[-3.8255245069999546,-9.083683793999967],[-3.714286683999944,-9.238350939999975],[-3.6029263199999377,-9.39306406299994],[-3.491444220999938,-9.547821746999944],[-3.3798412059999805,-9.702622572999928],[-3.2681180959999665,-9.857465124999976],[-3.156202677999943,-10.01234798799993],[-3.0432939399999555,-10.167269743999952],[-2.9302089209999735,-10.322228977999941],[-2.816948279999963,-10.477224271999944],[-2.703512691999947,-10.632254209999928],[-2.589902836999954,-10.787317376999965],[-2.4761194059999525,-10.942412352999952],[-2.3621630979999395,-11.097537724999938],[-2.248034625999935,-11.25269207499997],[-2.1337347069999737,-11.40787398599997],[-2.0192640709999523,-11.563082042999952],[-1.9046234599999252,-11.718314826999972],[-1.7898136199999612,-11.873570924999967],[-1.4458489309999436,-12.337446708999948],[-1.0998289129999534,-12.802480728999967],[-0.40645849399993494,-13.730233947999977],[-0.2938500889999318,-13.878799411999978],[-0.18115661699994234,-14.027462226999944],[-0.06836972399997876,-14.176219701999969],[0.04451893500004189,-14.325069146999965],[0.1575176880000413,-14.474007866999955],[0.270634851000068,-14.623033172999953],[0.3838787270000239,-14.772142370999973],[0.4972576040000263,-14.921332770999982],[0.6109976290000532,-15.070601680999971],[0.7251528470000608,-15.219946408999931],[0.8394962340000234,-15.369364261999976],[0.9540361420000636,-15.518852549999963],[1.0687809090000542,-15.668408578999959],[1.1837388580000265,-15.818029660999969],[1.298918297000057,-15.967713099999969],[1.414327523000054,-16.117456206999975],[1.5299748150000596,-16.26725628899993],[1.6458684430000403,-16.41711065499993],[1.7620166590000395,-16.567016612999964],[1.878427704000046,-16.716971469999976],[1.9951098040000375,-16.866972535999935],[2.1120711730000608,-17.017017117999956],[2.229320008000059,-17.167102523999972],[2.3468644960000233,-17.317226063999954],[2.464712809000048,-17.467385044999958],[2.5828731060000223,-17.617576774999975],[2.7013535320000415,-17.76779856299993],[2.820162220000043,-17.91804771699998],[2.9393072890000553,-18.068321543999957],[3.058796844000028,-18.218617352999956],[3.178638979000027,-18.368932452999957],[3.298841773000049,-18.51926415199995],[3.5403615890000424,-18.81996657899998],[3.783420672000034,-19.12070309799998],[4.274413116000062,-19.722192279999945],[4.398223289000043,-19.87255223699998],[4.522112243000038,-20.022901873999956],[4.644350818000021,-20.173238500999958],[4.766898469000068,-20.32355942399994],[4.889762712000049,-20.473861952999982],[5.012951051000073,-20.624143396999955],[5.136470993000046,-20.774401060999935],[5.260330027000066,-20.924632256999928],[5.384535644000039,-21.074834289999956],[5.509095327000068,-21.225004470999977],[5.634016548000034,-21.375140105999947],[5.759306779000042,-21.525238503999958],[5.884973481000031,-21.675296973999934],[6.011024109000061,-21.825312821999944],[6.137466114000063,-21.975283359999935],[6.264306938000061,-22.12520589299993],[6.391554020000058,-22.275077728999975],[6.519214789000046,-22.424896178999973],[6.64729666900007,-22.574658548999935],[6.7758070770000245,-22.724362146999965],[6.90475342700006,-22.874004283999966],[7.034143120000067,-23.02358226499996],[7.163983557000051,-23.17309339899998],[7.294282131000045,-23.322534994999955],[7.683691685000042,-23.770216197999957],[8.077950118000047,-24.216738951999957],[8.20008038800006,-24.35599506699998],[8.322279996000077,-24.495423518999928],[8.444551421000028,-24.63502071099998],[8.56689712900004,-24.774783042999957],[8.689319571000055,-24.914706915999943],[8.813991181000063,-25.054788732999953],[8.94235165400005,-25.195024891999935],[9.071124387000054,-25.33541179499997],[9.200313719000064,-25.475945844999956],[9.329923959000041,-25.616623441999934],[9.459959377000075,-25.75744098599995],[9.590424210000037,-25.898394878999966],[9.721322663000024,-26.03948152299995],[9.852658905000055,-26.180697317999943],[9.984437069000023,-26.322038663999933],[10.116661253000075,-26.463501962999942],[10.249335522000024,-26.605083616999934],[10.38246390200004,-26.746780025999954],[10.516050386000074,-26.888587590999975],[10.650098928000034,-27.030502714999955],[10.784613448000073,-27.172521794999966],[10.919597829000054,-27.314641236999933],[11.055055916000072,-27.45685743799993],[11.190991518000033,-27.599166801999957],[11.32740840300005,-27.741565726999966],[11.464310308000051,-27.884050616999957],[11.60170092800007,-28.026617871999974],[11.73958391900004,-28.169263892999936],[11.877962898000021,-28.311985080999932],[12.016841449000026,-28.454777836999938],[12.156223109000052,-28.59763856199993],[12.296111383000039,-28.74056365699994],[12.436509731000058,-28.883549523999932],[12.577421576000063,-29.026592561999962],[12.718850300000042,-29.169689174999974],[12.860799244000077,-29.312835761999963],[13.003271711000025,-29.456028723999964],[13.146270960000038,-29.59926446299994],[13.289800210000067,-29.742539379999982],[13.43386263800005,-29.885849875999952],[13.578711565000049,-30.02919235099995],[13.725122640000052,-30.17256320799993],[13.872150093000073,-30.315958845999944],[14.019797250000067,-30.45937566799995],[14.168067393000058,-30.602810072999944],[14.316963754000028,-30.746258463999936],[14.46648951900005,-30.88971724099997],[14.616647829000044,-31.033182804999967],[14.76744177300003,-31.176651556999957],[14.918874395000046,-31.320119899999952],[15.070948689000033,-31.46358423199996],[15.223667600000056,-31.60704095699998],[15.377034025000057,-31.750486473999956],[15.531050810000067,-31.893917183999974],[15.685720751000076,-32.037329489999934],[15.84104659600007,-32.180719790999945],[15.997031037000056,-32.32408448899997],[16.153676721000068,-32.467419984999935],[16.310986238000055,-32.61072267999998],[16.46896213200006,-32.75398897599996],[16.62760688700007,-32.89721527199998],[16.786922940000068,-33.04039796999996],[16.94691267500002,-33.183533472999954],[17.10757841700007,-33.32661817899998],[17.580047298000068,-33.74423415299998],[18.057841546000077,-34.15952700099996],[18.540281200000038,-34.57366909299998]]}},{"type":"Feature","properties":{},"geometry":{"type":"LineString","coordinates":[[139.74540922200003,35.37852475200003],[139.73946243400007,35.26666426500003],[139.80851132300006,35.17303054300004],[139.80833920800012,35.17286618800006],[139.36972116000004,34.75397409900006],[139.18752920100007,34.533205648000035],[138.49348962800002,33.707151665000026],[138.49347731900002,33.70714093500004],[122.62598508300005,20.363745153000025],[121.43291488500006,19.74692252600005],[109.93344532400005,8.064837861000058],[105.43553153600004,2.9673309870000253],[105.43504474100007,2.9667899550000243],[105.10530355700007,1.7716594070000724],[104.58892061100005,1.2716746020000755],[104.03996059300005,1.1038427350000575]]}},{"type":"Feature","properties":{},"geometry":{"type":"LineString","coordinates":[[-79.53452718999995,8.822717589000035],[-79.47670207399995,8.742893829000025],[-79.71564835299995,7.3684899780000706],[-79.71565208599998,7.368468050000047],[-81.00962582799997,6.59083580500004],[-87.65263783099994,9.143047723000052],[-107.79912026899996,19.946405652000067],[-107.80074413499995,19.947906362000026],[-115.06797563699996,26.61866924000003],[-116.07263930299996,27.953212267000026],[-117.34173600699995,32.590970957000025]]}},{"type":"Feature","properties":{},"geometry":{"type":"LineString","coordinates":[[-107.79898310499999,19.946504528000048],[-87.65250538999999,9.143146599000033],[-81.00949487499997,6.590920560000029],[-79.71564835299995,7.3684899780000706],[-79.71552010299996,7.368566926000028],[-79.47656925899997,8.742992706000052],[-79.53442703699994,8.82280233800003]]}},{"type":"Feature","properties":{},"geometry":{"type":"LineString","coordinates":[[-9.485459454999955,36.59884268700006],[-9.841327928999931,36.782280670000034],[-9.97409778499997,36.85013980200006],[-10.107100696999964,36.917853637000064],[-10.240337264999937,36.985421476000056],[-10.373808083999961,37.052842620000035],[-10.507513746999962,37.12011637000006],[-10.641454851999981,37.18724202900006],[-10.775631990999955,37.254218896000054],[-10.910045759999946,37.321046273000036],[-11.044696748999968,37.387723460000075],[-11.179585552999981,37.45424976000004],[-11.314712759999964,37.520624472000065],[-11.450078962999953,37.586846897000044],[-11.585684749999928,37.65291633600003],[-11.721530709999968,37.718832089000045],[-11.857617428999959,37.78459345700003],[-11.993945494999934,37.85019974100004],[-12.130515489999937,37.91565024000005],[-12.267328000999953,37.98094425600004],[-12.404383606999943,38.04608108700006],[-12.541682890999937,38.11106003500004],[-12.67922643199995,38.17588039900005],[-12.817014806999964,38.24054147900006],[-12.955048593999948,38.30504257600006],[-13.09332836599998,38.36938298900003],[-13.23185469699996,38.43356201800003],[-13.370628158999978,38.49757896300008],[-13.509649319999937,38.56143312300003],[-13.64891874899996,38.62512379800006],[-13.788437011999974,38.688650288000076],[-13.871903832999976,38.72648803800007],[-13.928204669999957,38.75201189200004],[-14.068222287999959,38.81520791000003],[-14.20849042499998,38.878237639000076],[-14.349009635999948,38.94110038100007],[-14.489780478999933,39.003795436000075],[-14.63080350599995,39.06632209900005],[-14.772079266999981,39.12867967300008],[-14.913608309999972,39.190867455000046],[-15.055391182999927,39.252884745000074],[-15.19742842599993,39.314730842000074],[-15.339720580999938,39.37640504500007],[-15.482268185999942,39.43790665100005],[-15.62507177499998,39.49923496000008],[-15.768131880999931,39.560389272000066],[-15.91144903299994,39.62136888400005],[-16.055023757999948,39.68217309500005],[-16.198856578999937,39.742801204000045],[-16.34294801699997,39.80325250900006],[-16.48729858799993,39.863526309000065],[-16.631908806999945,39.923621902000036],[-16.776779184999953,39.983538586000066],[-16.921523443999945,40.043382045000044],[-17.066372843999943,40.10308822800005],[-17.211473463999937,40.16261641300008],[-17.356825938999975,40.22196586800004],[-17.50243090699996,40.28113585800003],[-17.648288993999927,40.340125648000026],[-17.79440083299994,40.39893450400007],[-17.940767044999973,40.45756169100008],[-18.087388252999972,40.51600647400005],[-18.23426507399995,40.57426811700003],[-18.38139811999997,40.63234588600005],[-18.528788004999967,40.690239044000066],[-18.676435329999947,40.747946858000034],[-18.824340700999983,40.80546859100008],[-18.972504715999946,40.86280350700008],[-19.046683899999948,40.89140067900007],[-19.12092796899998,40.919950871000026],[-19.19523699299998,40.948453991000065],[-19.269611048999934,40.976909947000024],[-19.344050207999942,41.005318646000035],[-19.41855454299997,41.033679998000025],[-19.493124127999977,41.06199391000007],[-19.56775903399995,41.09026028900007],[-19.642459332999977,41.11847904500007],[-19.71722509899996,41.14665008400004],[-19.79205639999998,41.17477331600003],[-19.86695330799995,41.20284864700005],[-19.941915896999944,41.23087598500007],[-20.016944232999947,41.25885524100005],[-20.09203839199995,41.286786318000054],[-20.167198437999957,41.31466912800005],[-20.242424445999973,41.34250357700006],[-20.317716480999934,41.370289574000026],[-20.393074614999932,41.39802702600008],[-20.468498916999977,41.425715841000056],[-20.543989452999938,41.453355928000065],[-20.619546294999964,41.48094719300008],[-20.695169506999946,41.50848954600008],[-20.77085915999993,41.53598289300004],[-20.846615318999966,41.56342714400006],[-20.92243805199996,41.59082220500005],[-20.998327425999946,41.618167984000024],[-21.07428350699996,41.64546439000003],[-21.150306360999934,41.67271133000003],[-21.226396053999963,41.69990871300007],[-21.30255264999994,41.72705644500007],[-21.37877621699994,41.75415443600008],[-21.45506681699993,41.78120259100007],[-21.53142451599996,41.80820082100007],[-21.60784937699998,41.83514903200006],[-21.684341462999953,41.86204713200004],[-21.760900839999977,41.88889503000007],[-21.837527567999928,41.91569263300005],[-21.91422171299996,41.94243984700006],[-21.990983333999964,41.96913658300008],[-22.06781249499994,41.99578274800007],[-22.144709257999978,42.02237824900004],[-22.22167368199996,42.048922993000076],[-22.29870582999996,42.07541688900005],[-22.37580576199997,42.101859846000025],[-22.452973535999945,42.12825177000008],[-22.530209215999946,42.154592569000044],[-22.60751285799995,42.18088215100005],[-22.684884522999937,42.20712042500003],[-22.762324268999976,42.23330729700007],[-22.839832152999975,42.25944267600005],[-22.917408233999936,42.28552646800006],[-22.995052571999963,42.31155858300008],[-23.07276521999995,42.33753892800007],[-23.15054623599997,42.363467410000055],[-23.22839567799997,42.38934393900007],[-23.306313599999953,42.41516842000004],[-23.38430005899994,42.440940761000036],[-23.46235510899993,42.46666087300008],[-23.540478805999953,42.492328660000055],[-23.618671203999952,42.51794403200006],[-23.69693235699998,42.543506895000064],[-23.775262316999942,42.569017159000055],[-23.85366113799995,42.59447473000006],[-23.932128874999933,42.61987951700007],[-24.01066557599995,42.645231427000056],[-24.089271295999936,42.67053036800007],[-24.167946085999972,42.695776247000026],[-24.246689996999976,42.72096897200004],[-24.32550307899993,42.746108452000044],[-24.40438538199993,42.771194594000065],[-24.48333695699995,42.79622730600005],[-24.56235785299998,42.82120649400008],[-24.64144811899996,42.84613206800003],[-24.72060780099997,42.87100393600008],[-24.79983694899994,42.895822003000035],[-24.87913561199997,42.920586179000054],[-24.95850383399994,42.94529637000005],[-25.03794166299997,42.96995248600007],[-25.117449145999956,42.994554434000065],[-25.197026327999936,43.01910212100006],[-25.276673253999945,43.04359545600005],[-25.356389968999963,43.06803434400007],[-25.436176517999968,43.09241869600004],[-25.51603294299997,43.11674841800004],[-25.59595928999994,43.14102341800003],[-25.675955599999952,43.16524360400007],[-25.75602191699994,43.189408883000056],[-25.83615828099994,43.21351916400005],[-25.916364735999935,43.23757435400006],[-25.99664132099997,43.261574361000044],[-26.076988076999953,43.28551909200007],[-26.15740504499996,43.30940845500004],[-26.237892261999946,43.33324235900005],[-26.318449770999962,43.35702071000003],[-26.39907760799997,43.380743417000076],[-26.479775810999968,43.40441038700004],[-26.56054441799995,43.428021529000034],[-26.64138346699997,43.451576748000036],[-26.72229299299994,43.47507595500008],[-26.80327303399997,43.49851905600008],[-26.884323622999943,43.52190595900004],[-26.965444797999965,43.54523657200008],[-27.04663659199997,43.56851080200005],[-27.127899037999953,43.59172855800006],[-27.20923217199993,43.614889746000074],[-27.29063602499997,43.63799427500004],[-27.372110628999963,43.661042053000074],[-27.453656016999958,43.68403298900006],[-27.535272220999957,43.706966987000044],[-27.616959270999928,43.72984395700007],[-27.69871719699995,43.75266380800008],[-27.78054603099997,43.77542644500005],[-27.862445799999932,43.79813177700004],[-27.944416530999945,43.820779713000036],[-28.026458255999955,43.84337016100005],[-28.108571001999962,43.86590302500008],[-28.19075479399993,43.888378216000035],[-28.273009658999968,43.91079564200004],[-28.355335623999963,43.93315521000005],[-28.437732712999946,43.95545682800008],[-28.52020095399996,43.97770040300003],[-28.602740366999967,43.999885842000026],[-28.685350979999953,44.02201305500006],[-28.768032810999955,44.04408195000008],[-28.85078588799996,44.06609243300005],[-28.933610228999953,44.088044412000045],[-29.01650585699997,44.109937796000054],[-29.09947279299996,44.13177249200004],[-29.182511055999953,44.15354840800006],[-29.26562066799994,44.175265452000076],[-29.34880164599997,44.19692353200003],[-29.432054009999945,44.21852255500005],[-29.515377774999934,44.240062429000034],[-29.598772963999977,44.261543062000044],[-29.68223958699997,44.282964363000076],[-29.765777664999973,44.304326238000044],[-29.849387210999964,44.32562859800004],[-29.933068241999933,44.34687134600006],[-30.01682077099997,44.36805439400007],[-30.10064481099994,44.389177647000054],[-30.184540375999973,44.410241015000054],[-30.268507478999936,44.43124440500003],[-30.35254613099994,44.452187726000034],[-30.43665634399997,44.47307088300005],[-30.520838126999934,44.49389378700005],[-30.605091492999975,44.51465634400006],[-30.689416446999928,44.53535846400007],[-30.77381300299993,44.55600005200006],[-30.858281165999983,44.57658101900006],[-30.942820943999948,44.59710127000005],[-31.027432343999976,44.617560714000035],[-31.11211537199995,44.63795926000006],[-31.19687003499996,44.65829681500003],[-31.281696334999936,44.67857328700006],[-31.36659427799998,44.698788585000045],[-31.451563868999983,44.71894261400007],[-31.536605108999936,44.739035286000046],[-31.621718000999977,44.75906650600007],[-31.70690254899995,44.77903618200003],[-31.79215875099993,44.79894422400008],[-31.87748660699998,44.81879053900008],[-31.96288611799997,44.838575035000076],[-32.04835728499995,44.85829761900004],[-32.133900102999974,44.87795820100007],[-32.21951457299997,44.897556687000076],[-32.305200688999946,44.917092987000046],[-32.39095844999997,44.936567007000065],[-32.47678784999994,44.95597865700006],[-32.562688883999954,44.97532784300006],[-32.64866154799995,44.99461447500005],[-32.73493603299994,45.013872640000045],[-32.821372406999956,45.03308152900007],[-32.907881327999974,45.05222779600007],[-32.994462762999945,45.07131134600007],[-33.08111667099996,45.09033208200003],[-33.16784301499996,45.10928990800005],[-33.254641755999955,45.128184730000044],[-33.34151285399997,45.14701645100007],[-33.428456265999955,45.165784977000044],[-33.51547195599994,45.184490211000025],[-33.602559876999976,45.20313205800005],[-33.68971999199994,45.22171042100007],[-33.77695225499997,45.24022520700004],[-33.86425662299996,45.25867631800003],[-33.951633053999956,45.27706366100006],[-34.03908150099994,45.295387137000034],[-34.12660191899994,45.31364665400008],[-34.21419426299997,45.33184211400004],[-34.30185848699995,45.34997342200006],[-34.38959454199994,45.36804048400006],[-34.47740238299997,45.38604320300004],[-34.56528195899995,45.40398148400004],[-34.65323322199998,45.42185523200004],[-34.74125612399996,45.439664350000044],[-34.82935061099994,45.457408746000056],[-34.91751663699995,45.475088321000044],[-35.00575414699995,45.492702981000036],[-35.09406308999996,45.510252630000025],[-35.18244341299993,45.52773717500003],[-35.270895063999944,45.545156517000066],[-35.35941798599998,45.562510564000036],[-35.44801212699997,45.57979921900005],[-35.53667742999994,45.59702238700004],[-35.625413838999975,45.61417997400008],[-35.71422129999996,45.63127188200008],[-35.80309975299997,45.64829801800005],[-35.89204913999998,45.66525828600004],[-35.98106940599996,45.68215259100003],[-36.07016048699995,45.69898083700008],[-36.15932232599994,45.71574293100008],[-36.248554860999946,45.73243877600004],[-36.337858032999975,45.74906827700005],[-36.42723177899995,45.76563134000003],[-36.51667603399994,45.78212786900008],[-36.60619073999993,45.79855776900007],[-36.69577582799997,45.81492094500004],[-36.785431236999955,45.83121730200003],[-36.87515690099997,45.84744674500007],[-36.964952754999956,45.86360917800005],[-37.054818728999976,45.87970450900008],[-37.144754758999966,45.89573264000006],[-37.23476077799995,45.91169347700003],[-37.32483671499995,45.92758692500007],[-37.41498250199993,45.94341289000005],[-37.50519806799997,45.95917127700005],[-37.59548334599998,45.97486198900003],[-37.68583826199995,45.99048493400005],[-37.866756717999976,46.02152713900006],[-38.04795285899996,46.05229713400007],[-38.22942608699998,46.08279416100004],[-38.41117579999997,46.11301746200007],[-38.593201378999936,46.14296627900006],[-38.77550219999995,46.172639857000036],[-38.95807762399994,46.20203743800005],[-39.140927000999966,46.23115826600008],[-39.324049671999944,46.26000158700003],[-39.50744496599998,46.28856664300008],[-39.691112197999985,46.31685268100006],[-39.87505067799998,46.344858944000066],[-40.05925969599997,46.37258468200008],[-40.243738538999935,46.40002913600006],[-40.42848647799997,46.42719155700007],[-40.61350277399998,46.45407118800006],[-40.79878667599996,46.48066728100008],[-40.98433742199995,46.506979080000065],[-41.17015423799995,46.53300583500004],[-41.35623634099994,46.55874679400006],[-41.54258293099997,46.584201207000035],[-41.729193202999966,46.60936832300007],[-41.916066333999936,46.63424739200008],[-42.10320149499995,46.65883766400003],[-42.290597840999965,46.683138392000046],[-42.47825452099994,46.70714882500005],[-42.666170662999946,46.73086821600003],[-42.85434539399995,46.75429581800006],[-43.04277781999997,46.77743088200003],[-43.23146704199996,46.80027266400003],[-43.42041214499994,46.82282041600007],[-43.60961220499996,46.845073392000074],[-43.799066282999945,46.86703084900006],[-43.98877343299995,46.88869204100007],[-44.17873269099994,46.91005622400007],[-44.368943085999945,46.93112265500008],[-44.55940363299993,46.95189058900007],[-44.75011333599997,46.972359287000074],[-44.94107118699998,46.992528005000054],[-45.13227616299997,47.01239600100007],[-45.32372723599997,47.03196253600004],[-45.515423357999964,47.05122686800007],[-45.707363473999976,47.070188259000076],[-45.89954651599993,47.08884596900003],[-46.091971403999935,47.10719926000007],[-46.28463704599994,47.12524739200006],[-46.47754233799998,47.142989631000034],[-46.67068616199998,47.16042523900006],[-46.86406739199998,47.17755347900004],[-47.05768488599995,47.19437361700005],[-47.251537492999944,47.210884916000055],[-47.445624048999946,47.22708664400005],[-47.63994337799994,47.242978066000035],[-47.83449428999995,47.258558450000066],[-48.02927558599998,47.273827063000056],[-48.22428605399995,47.28878317400006],[-48.41952446799996,47.30342605100003],[-48.61498959499994,47.31775496400007],[-48.81068018299993,47.33176918300006],[-49.00659497299995,47.34546798100007],[-49.20273269399996,47.35885062700004],[-49.399092060999976,47.37191639500003],[-49.59567177699995,47.384664557000065],[-49.79247053499995,47.397094389000074],[-49.98948701399996,47.40920516300008],[-50.18671988099993,47.42099615400008],[-50.38416779399995,47.432466641000076],[-50.421047158999954,47.43454693800004],[-50.58182939899996,47.44361589700003],[-50.77970332199993,47.45444320200005],[-50.97778818799998,47.46494783300005],[-51.176082605999966,47.47512906700007],[-51.37458516999993,47.48498618800005],[-51.57329446499995,47.49451847300003],[-51.77220906599996,47.503725204000034],[-51.971327533999954,47.512605663000045],[-52.17064841699994,47.52115913200004],[-52.37017025299997,47.52938489600007],[-52.86998722799996,47.54756366000004]]}},{"type":"Feature","properties":{},"geometry":{"type":"LineString","coordinates":[[114.274628516,22.211241339000026],[114.29450006900004,22.22165284400006],[114.31222387800005,22.22627370400005],[114.31222736100005,22.226272487000074],[114.33206341200002,22.219342512000026],[114.33857593800008,22.216632771000036],[114.35706894900011,22.208937931000037],[114.3570753780001,22.208925600000043],[114.37637021400008,22.171911159000047],[114.42033856100011,22.132151065000073],[114.44670766500008,22.108299199000044],[117.29023454100002,22.961396086000036],[117.7496961920001,23.287715535000075],[119.09547814700011,23.930025732000047],[121.37927336100006,26.702165457000035],[129.28214526400006,34.801536601000066],[140.24739578300012,41.26019238400005],[140.80052711400003,41.60147550100004],[140.80054790100007,41.60148832400006]]}},{"type":"Feature","properties":{},"geometry":{"type":"LineString","coordinates":[[56.70307444700006,26.37319961000003],[57.16904072800003,25.817303740000057],[57.46075615400008,25.46392748100004],[57.46076325400003,25.463924417000044],[72.77328508500005,18.561622897000063],[75.82264403900007,9.789093155000046],[76.92063557600005,8.071229876000075]]}},{"type":"Feature","properties":{},"geometry":{"type":"LineString","coordinates":[[45.17413427100007,12.65693380600004],[45.25437811300003,12.624548838000067],[49.04663431300003,13.71150530600005],[56.74009396400004,17.23905508300004],[58.273946856000066,18.826619279000056],[59.30797232800006,20.245199678000063],[60.15179972400006,21.910181341000055],[60.20980390300008,22.341730534000078],[60.21397767900004,22.474783349000063],[57.46076325400003,25.463924417000044],[57.46076025800005,25.46392748100004],[57.16904072800003,25.817303740000057],[56.703079925000054,26.373185488000047]]}},{"type":"Feature","properties":{},"geometry":{"type":"LineString","coordinates":[[-79.95159658699998,9.32946978900003],[-79.95160791799998,9.32948106400005],[-79.95161560699995,9.329488715000025],[-79.96785773799996,9.345651280000027],[-80.67189919099997,9.669475803000068],[-81.34925225199999,10.186496056000067],[-81.67117184099999,10.880579185000045],[-81.73351049199994,11.686917367000035],[-81.60479362299998,13.466230531000065],[-81.79231100099997,14.885701892000043],[-82.06525691899998,16.06684725200006],[-82.34698056999997,17.28730583300006],[-82.86121922099994,18.27752298000007],[-83.65588183699998,19.260747855000034],[-84.39593941199996,20.20349291900004],[-84.75058308699994,20.655768007000063],[-85.54132523199996,21.753523619000077],[-86.41436893699995,22.891768425000066],[-87.88343906099999,25.545399341000063],[-89.86037336699997,29.32103083900006]]}},{"type":"Feature","properties":{},"geometry":{"type":"LineString","coordinates":[[114.274628516,22.211241339000026],[114.29450006900004,22.22165284400006],[114.31222387800005,22.22627370400005],[114.31222736100005,22.226272487000074],[114.33206341200002,22.219342512000026],[114.33857593800008,22.216632771000036],[114.35706894900011,22.208937931000037],[114.3570753780001,22.208925600000043],[114.37637021400008,22.171911159000047],[114.42033856100011,22.132151065000073],[114.44670766500008,22.108299199000044],[114.44670762800001,22.10829480700005],[114.44440329700001,21.85144914800003],[113.72806444100001,19.119825009000067],[113.3912016480001,16.06086099600003],[109.62977550400007,9.832558620000043],[105.43553153600004,2.9673309870000253],[105.43518839800004,2.9667899780000653],[105.10543918900004,1.7716594280000209],[104.58905623300006,1.271674623000024],[104.04009621100005,1.1038427570000522]]}},{"type":"Feature","properties":{},"geometry":{"type":"LineString","coordinates":[[-179.99998853999998,43.95111159500004],[-178.83996610799997,43.989652317000036],[-178.67502037999998,43.99426818300003],[-178.51011073099997,43.998638680000056],[-178.34523789199997,44.00276407400003],[-178.18040259499998,44.006644632000075],[-178.01560556999996,44.01028062200004],[-177.85084754899998,44.01367231100005],[-177.686129264,44.01681996800005],[-177.52145144499997,44.019723860000056],[-177.35681482399997,44.022384256000066],[-177.19222013399997,44.02480142500008],[-177.02766810399999,44.02697563700008],[-176.86315946499997,44.02890716100006],[-176.69869494799997,44.03059626600003],[-176.53427528399996,44.03204322400006],[-176.36990120299998,44.03324830300005],[-176.20557343299998,44.034211775000074],[-176.04129270499996,44.03493391000006],[-175.87705974799997,44.03541498100003],[-175.71287528999997,44.03565525800008],[-175.54874005799996,44.03565501400004],[-175.38465478099997,44.035414520000074],[-175.22062018299997,44.03493404900007],[-175.05663699299998,44.034213873000056],[-174.89270593499998,44.03325426600003],[-174.72882773299997,44.03205550000007],[-174.56500311099998,44.030617850000056],[-174.40123279299996,44.028941588000066],[-174.23751749999997,44.027026989000035],[-174.07385795499997,44.02487432700008],[-173.91025487399997,44.02248387800006],[-173.74670898199997,44.01985591600004],[-173.583220994,44.01699071400003],[-173.41979162799998,44.013888551000036],[-173.25642159899996,44.01054970000007],[-173.09311162399996,44.00697443800004],[-172.92986241499997,44.00316304200004],[-172.76667468499997,43.99911578700005],[-172.60354914699997,43.994832951000035],[-172.44048650899998,43.99031481000003],[-172.27748748199997,43.98556164200005],[-172.11455277099998,43.980573725000056],[-171.95168308299998,43.97535133500003],[-171.788879123,43.96989475100003],[-171.62614159399996,43.96420425300005],[-171.46347119699996,43.95828011700007],[-171.30086863299996,43.95212262300004],[-171.13833459899996,43.94573205100005],[-170.975869793,43.93910867900007],[-170.813474911,43.93225278700004],[-170.65115064299997,43.92516465500006],[-170.48889768499998,43.91784456200003],[-170.32671672599997,43.910292791000074],[-170.16460845099996,43.902509620000046],[-170.00257354999997,43.89449533100003],[-169.84061270699996,43.88625020500007],[-169.67872660299997,43.877774524000074],[-169.51691591999997,43.869068569000035],[-169.35518133499997,43.86013262100005],[-169.193523528,43.850966963000076],[-169.03194317099997,43.841571877000035],[-168.87044093799997,43.83194764700005],[-168.70901749799998,43.822094554000046],[-168.54767352199997,43.81201288200003],[-168.38640967399996,43.80170291300004],[-168.22522661899998,43.79116493200007],[-168.06412501899996,43.780399223000074],[-167.90310553099997,43.76940606900007],[-167.74216881799998,43.75818575400007],[-167.58131552899997,43.746738564000054],[-167.42054632099996,43.73506478100006],[-167.25986184099997,43.72316469300006],[-167.09926273899998,43.71103858400005],[-166.93874965999998,43.69868673800005],[-166.77832324799996,43.68610944300008],[-166.61798414099997,43.67330698200004],[-166.45773297799997,43.66027964400007],[-166.29757039599997,43.64702771300006],[-166.13749702499996,43.633551477000026],[-165.97751349699996,43.61985122200008],[-165.81762043999998,43.60592723600007],[-165.65781847799997,43.591779804000055],[-165.49810823399997,43.577409216000035],[-165.33849032599997,43.56281575700007],[-165.17896537199996,43.54799971700004],[-165.01953398599997,43.53296138400003],[-164.86019677799996,43.517701044000034],[-164.70095435999997,43.50221898700005],[-164.54180733299998,43.48651550200003],[-164.38275630199996,43.47059087700006],[-164.22380186699996,43.45444540200003],[-164.06494462299997,43.43807936500008],[-163.90618516499998,43.42149305800007],[-163.74752408499998,43.40468676800003],[-163.58896197099997,43.387660786000026],[-163.43049940499998,43.37041540300004],[-163.27213697099998,43.352950908000025],[-163.11387524799997,43.33526759100005],[-162.95571481199997,43.317365745000075],[-162.79765623499998,43.299245660000054],[-162.63970008499996,43.280907626000044],[-162.48184693199997,43.26235193500003],[-162.32409733599997,43.24357887900004],[-162.16645185699997,43.22458874900008],[-162.00891105299996,43.20538183800005],[-161.85147547799997,43.18595843800006],[-161.69414567999996,43.16631884000003],[-161.53692220899998,43.146463338000046],[-161.37980560599996,43.12639222300004],[-161.22279641299997,43.106105789000026],[-161.06589516599996,43.085604329000034],[-160.90910239899998,43.064888137000025],[-160.75241864199998,43.04395750400005],[-160.59584442099998,43.02281272700003],[-160.43938026199996,43.00145409800007],[-160.28302668399996,42.979881910000074],[-160.12678420199998,42.958096459000046],[-159.97065333099997,42.93609803900006],[-159.81463457999996,42.91388694300008],[-159.65872845399997,42.89146346800004],[-159.50293545799997,42.868827907000025],[-159.34725608799997,42.84598055600003],[-159.19169084299998,42.82292171000006],[-159.03624021199997,42.799651665000056],[-158.88090468299998,42.77617071600008],[-158.72568474399998,42.75247915800003],[-158.57058087399997,42.72857728900004],[-158.41559355099997,42.70446540300003],[-158.26072324699996,42.680143798000074],[-158.10597043499996,42.65561276900007],[-157.95133557999998,42.630872615000044],[-157.79681914599996,42.605923629000074],[-157.64242159099996,42.58076611100006],[-157.48814337099998,42.55540035700005],[-157.33398493599998,42.52982666400004],[-157.17994673799998,42.50404533100004],[-157.02602921699997,42.478056654000056],[-156.87223281599998,42.451860931000056],[-156.71855796999998,42.42545846000007],[-156.56500511399997,42.39884954000007],[-156.41157467499997,42.37203446800004],[-156.25826707899998,42.34501354300005],[-156.10508274699998,42.317787063000026],[-155.95202209799996,42.29035532800003],[-155.79908554499997,42.262718634000066],[-155.64627349799997,42.23487728400005],[-155.49358636299996,42.20683157500008],[-155.34102454099997,42.17858180600007],[-155.18858843299998,42.15012827700008],[-155.03627843099997,42.12147128600003],[-154.88409492799997,42.09261113600007],[-154.73203830899996,42.06354812500007],[-154.58010895599998,42.034282553000025],[-154.42830724799998,42.00481472000007],[-154.27663356199997,41.97514492700003],[-154.12508826799998,41.94527347400003],[-153.97367173099997,41.915200662000075],[-153.82238431699997,41.884926792000044],[-153.67122638399997,41.854452163000076],[-153.52019828399997,41.823777078000035],[-153.36930037299996,41.792901838000034],[-153.21853299599996,41.761826744000075],[-153.06789649599997,41.73055209600005],[-152.91739121199998,41.69907819800005],[-152.76701747999996,41.66740535000008],[-152.61677563099997,41.63553385500006],[-152.46666599099996,41.60346401400005],[-152.31668888599998,41.57119612900004],[-152.16684463199996,41.53873050400006],[-152.01713354499998,41.50606743800006],[-151.86755593699996,41.473207237000054],[-151.71811211499997,41.44015020200004],[-151.56880238199997,41.40689663500007],[-151.41962703599998,41.37344684000004],[-151.27058637299996,41.33980111900007],[-151.12168068399998,41.305959777000055],[-150.97291025499996,41.27192311500005],[-150.82427536999998,41.23769143700008],[-150.67577630699998,41.20326504700006],[-150.52741334099997,41.16864424800008],[-150.37918674299996,41.13382934400005],[-150.23109677899998,41.09882063800006],[-150.08314371299997,41.06361843500008],[-149.93532780199996,41.02822303800008],[-149.78764929999997,40.99263475300006],[-149.64010845999996,40.956853882000075],[-149.49270552699997,40.92088073100007],[-149.34544074299998,40.884715603000075],[-149.19831434599996,40.84835880400004],[-149.05132657099998,40.811810638000054],[-148.90447764899997,40.77507140800003],[-148.75776780499996,40.73814142300006],[-148.61119726099997,40.70102098500007],[-148.46476623399997,40.663710399000024],[-148.31847493899997,40.62620997200003],[-148.17232358699997,40.58852000700006],[-148.02631238299998,40.55064081200004],[-147.88044152799998,40.51257269100006],[-147.73471122099997,40.47431594900007],[-147.58912165499996,40.43587089300007],[-147.44367301999998,40.39723782800007],[-147.29836549999996,40.35841706100007],[-147.15319927899998,40.31940889600003],[-147.00817453399998,40.280213641000046],[-146.86329143799998,40.240831601000025],[-146.71855015999998,40.20126308400006],[-146.57395086599996,40.16150839300008],[-146.42949371799997,40.12156783800003],[-146.28517887199996,40.08144172300007],[-146.14100648299996,40.04113035700004],[-145.99697669999998,40.00063404400004],[-145.85307873499997,39.960049670000046],[-145.70932287299996,39.91928132400005],[-145.56570943799997,39.87832774900005],[-145.42223858099996,39.837189230000035],[-145.27891045199996,39.795866052000065],[-145.13572519599998,39.754358499000034],[-144.99268295499996,39.712666855000066],[-144.84978386399996,39.670791404000056],[-144.70702805899998,39.62873243100006],[-144.56441567099998,39.586490222000066],[-144.42194682499996,39.544065061000026],[-144.27962164399997,39.501457232000064],[-144.13744024899998,39.458667019000075],[-143.995402754,39.415694708000046],[-143.853509272,39.372540584000035],[-143.711759912,39.32920493000006],[-143.57015477799996,39.28568803300004],[-143.42869397099997,39.24199017600006],[-143.28737758999995,39.19811164600003],[-143.14620572799998,39.15405272600003],[-143.00517847499998,39.109813702000054],[-142.86429591799998,39.06539485800005],[-142.72355814099996,39.02079648000006],[-142.58296522399996,38.97601885200004],[-142.44251724099996,38.93106226000003],[-142.30221426599996,38.88592698900004],[-142.16205636899997,38.84061332300007],[-142.02204361399998,38.795121549000044],[-141.88217606199998,38.749451951000026],[-141.74245377199998,38.70360481500006],[-141.6028768,38.65758042500005],[-141.46344519499996,38.61137906700003],[-141.324159007,38.56500102700005],[-141.18501827899996,38.518446589000064],[-141.04602305099996,38.47171603900006],[-140.90717336199998,38.42480966200003],[-140.76846924399996,38.377727744000026],[-140.62991072799997,38.330470570000045],[-140.49149784099995,38.28303842500003],[-140.35323060499996,38.23543159600007],[-140.215109042,38.18765036700006],[-140.07713316599995,38.13969502300006],[-139.93930299099998,38.09156585200003],[-139.80161852599997,38.04326313800004],[-139.66407977899996,37.99478716600004],[-139.52668675099994,37.94613822300005],[-139.38943944,37.89731659300003],[-139.25233784399995,37.84832256400006],[-139.115381953,37.79915641900004],[-138.97857175899998,37.74981844500007],[-138.841907247,37.70030892800003],[-138.70538839699998,37.65062815400006],[-138.56901518999996,37.60077640800006],[-138.43278760099997,37.55075397500008],[-138.29670560299996,37.50056114300003],[-138.160769164,37.45019819500004],[-138.02497824999995,37.399665420000076],[-137.88933282299996,37.34896310200003],[-137.75383284299994,37.298091526000064],[-137.61847826399998,37.24705097900005],[-137.48326903999998,37.19584174800008],[-137.34820512,37.14446411800003],[-137.21328644999994,37.09291837400008],[-137.07851297099995,37.04120480300003],[-136.94388462399996,36.98932369000005],[-136.809401343,36.93727532400004],[-136.67506306599995,36.885059986000044],[-136.54086971699996,36.83267796600006],[-136.40682122599998,36.78012954900004],[-136.27291751599995,36.72741502000008],[-136.13915850599994,36.674534667000046],[-136.00554411399997,36.621488774000056],[-135.872074253,36.56827762900008],[-135.73874883499997,36.514901517000055],[-135.60556776799996,36.46136072400003],[-135.472530953,36.40765553600005],[-135.339638295,36.353786240000034],[-135.20688968999997,36.29975312200003],[-135.07428503499995,36.245556468000075],[-134.94182422199998,36.19119656300006],[-134.80950713799996,36.13667369500007],[-134.67733366899995,36.08198815000003],[-134.54530370099997,36.02714021400004],[-134.41341711099994,35.97213017200005],[-134.28167377699998,35.91695831200008],[-134.150073572,35.861624919000064],[-134.01861636799998,35.80613027900006],[-133.887302031,35.750474680000025],[-133.75613042799995,35.69465840700008],[-133.62510141899998,35.63868174700008],[-133.49421486399996,35.58254498500003],[-133.36347062,35.52624840900006],[-133.23286853699994,35.469792304000066],[-133.10240846699998,35.41317695600003],[-132.97209025799998,35.35640265300003],[-132.84191375199998,35.29946968100006],[-132.71187879299998,35.24237832600005],[-132.58198521699995,35.185128872000064],[-132.45223286199996,35.12772160900005],[-132.32262155799998,35.07015682200006],[-132.19315113699997,35.012434797000026],[-132.06385889399996,34.954628451000076],[-131.93471718399996,34.89668362700007],[-131.805715503,34.83858048700006],[-131.67685363599998,34.78031930000003],[-131.548131367,34.721900334000054],[-131.41954847699998,34.66332385800007],[-131.29110474199996,34.60459013900004],[-131.16279993899997,34.54569944600007],[-131.03463383699994,34.48665204800005],[-130.90660620699998,34.42744821200006],[-130.77871681199997,34.36808820600004],[-130.65096541799994,34.30857230100003],[-130.52335178099997,34.24890076300005],[-130.39587565999994,34.18907386200004],[-130.26853680899995,34.12909186400003],[-130.14133497999995,34.06895504000005],[-130.01426991799997,34.00866365600007],[-129.88734137199998,33.948217982000074],[-129.76054908099997,33.887618287000066],[-129.63389278799997,33.82686483600003],[-129.50737222699996,33.765957901000036],[-129.38098713399995,33.704897749000054],[-129.25473723999994,33.64368464800003],[-129.12862227199997,33.582318867000026],[-129.002641956,33.52080067300005],[-128.87679601699995,33.459130336000044],[-128.751084172,33.39730812300007],[-128.62550614099996,33.335334303000025],[-128.500061637,33.27320914500007],[-128.37475037299998,33.21093291700004],[-128.24957205799996,33.14850588500008],[-128.12452639799994,33.08592832200003],[-127.99961309699995,33.02320049200006],[-127.87483185699995,32.960322666000025],[-127.75018237599994,32.89729511100006],[-127.62566434999997,32.834118095000065],[-127.50127747199997,32.770791889000066],[-127.37702143199999,32.70731675800005],[-127.25289591999996,32.64369297200005],[-127.12890061999997,32.579920800000025],[-127.00503521599995,32.51600050800005],[-126.88129938799995,32.45193236700004],[-126.75769281199996,32.38771664500007],[-126.63421516499994,32.32335360800005],[-126.51086612099999,32.25884352600008],[-126.38764534799998,32.19418666800004],[-126.26455251399994,32.129383302000065],[-126.14158728399997,32.06443369600004],[-126.01874932099997,31.999338118000026],[-125.89603828599996,31.934096835000048],[-125.77345383699998,31.86871011900007],[-125.65099562699999,31.803178236000065],[-125.52866331199999,31.73750145400004],[-125.40645654099995,31.671680043000038],[-125.28437496099997,31.605714270000078],[-125.16241821899996,31.539604403000055],[-125.04058595899994,31.47335071200007],[-124.91887781899999,31.406953465000072],[-124.79729344099997,31.340412929000024],[-124.67583245999998,31.273729373000037],[-124.554494509,31.20690306700004],[-124.43327921999997,31.139934276000076],[-124.31218622299997,31.07282327100006],[-124.19121514399995,31.00557032000006],[-124.07036560799997,30.938175690000037],[-123.94963723699999,30.870639651000033],[-123.82902965099998,30.80296246900008],[-123.70854246899995,30.735144416000026],[-123.58817530599998,30.667185758000073],[-123.46792777399997,30.59908676300006],[-123.34779948699997,30.53084769900005],[-123.22779005099994,30.462468837000074],[-123.10789907499998,30.39395044400004],[-122.98812616199996,30.325292787000024],[-122.86847091599998,30.256496135000077],[-122.74893293499997,30.187560758000075],[-122.62951181899996,30.118486922000045],[-122.51020716299996,30.04927489800008],[-122.39098981199999,29.979924951000044],[-122.271818613,29.91043735200003],[-122.15276446299998,29.84081236800006],[-122.03382700099996,29.771050269000057],[-121.91500586199999,29.701151322000044],[-121.79630067999994,29.63111579400004],[-121.67771108799997,29.560943956000074],[-121.55923671499994,29.490636075000054],[-121.44087719099997,29.420192420000035],[-121.32263214099999,29.349613259000023],[-121.20450119099996,29.278898860000027],[-121.08648396299998,29.208049491000054],[-120.96858007899999,29.137065422000035],[-120.85078915699995,29.065946920000044],[-120.73311081599996,28.994694254000024],[-120.61554467099995,28.923307691000048],[-120.49809033499997,28.851787501000047],[-120.38074742099997,28.78013395200003],[-120.26351553799998,28.708347312000058],[-120.146394295,28.63642784900003],[-120.02938330099994,28.564375832000053],[-119.91248215799999,28.49219153000007],[-119.79569046899996,28.419875209000054],[-119.67900783899995,28.347427140000036],[-119.56243386399996,28.274847589000046],[-119.44596814599998,28.20213682600007],[-119.32961027699997,28.129295119000062],[-119.21335985499996,28.056322737000073],[-119.09721647199996,27.983219947000066],[-118.98117971899995,27.909987018000038],[-118.86524918699996,27.836624218000054],[-118.74942446199998,27.763131815000065],[-118.63370513099994,27.689510080000048],[-118.51809078099996,27.615759277000052],[-118.40258099299996,27.541879678000043],[-118.28717534999998,27.46787154900005],[-118.17187342999995,27.393735160000062],[-118.05667481299997,27.319470780000074],[-117.94157907499999,27.24507867500006],[-117.82658579299999,27.170559113000024],[-117.71169453699997,27.09591236600005],[-117.59690488299998,27.021138699000062],[-117.48221640099996,26.946238381000057],[-117.36762865599997,26.871211682000023],[-117.25314122099996,26.796058869000035],[-117.13875365799998,26.720780210000044],[-117.02446553399994,26.645375973000057],[-116.91027641099998,26.56984642900005],[-116.79618584899998,26.494191844000056],[-116.68219341099996,26.41841248700007],[-116.56829865199995,26.34250862600004],[-116.45450113199996,26.266480529000034],[-116.34080040599997,26.19032846500005],[-116.22719602699999,26.114052703000027],[-116.11368754899996,26.03765351100003],[-116.00027452199998,25.96113115600008],[-115.88695649599998,25.884485908000045],[-115.77373301999995,25.80771803500005],[-115.66060364199996,25.730827804000057],[-115.54756790599998,25.653815485000052],[-115.43462535699996,25.576681346000044],[-115.32177553699995,25.49942565500004],[-115.20901798899996,25.422048680000046],[-115.09635225199997,25.344550690000062],[-114.98377786399999,25.26693195400003],[-114.87129436499998,25.18919273800003],[-114.758901289,25.111333313000046],[-114.64659816999995,25.033353946000034],[-114.53399665399996,24.95525490500006],[-114.42120766299996,24.877036460000056],[-114.30852383199999,24.79869887700005],[-114.19594498099997,24.720242426000027],[-114.08347093299994,24.641667375000054],[-113.97110150599997,24.56297399300007],[-113.85883651799998,24.48416254600005],[-113.74667578699996,24.405233305000024],[-113.63461913099997,24.32618653700007],[-113.52266636799999,24.247022512000058],[-113.41081731099996,24.167741496000076],[-113.29907177699994,24.088343758000065],[-113.18742958099995,24.008829567000078],[-113.07589053599997,23.929199191000066],[-112.96445445599994,23.849452899000028],[-112.85312115399995,23.769590958000038],[-112.74189043999996,23.689613638000026],[-112.63076212799996,23.609521206000068],[-112.51973602599998,23.529313931000047],[-112.40881194699995,23.44899208100003],[-112.29798969899997,23.368555924000077],[-112.18726909199995,23.288005730000066],[-112.07664993199995,23.20734176600007],[-111.966132029,23.12656430000004],[-111.85571518899997,23.045673602000022],[-111.74539921899998,22.964669938000043],[-111.63518392399999,22.883553578000033],[-111.52506910899996,22.802324790000057],[-111.41505458099999,22.720983842000066],[-111.30514014199997,22.639531004000048],[-111.19532559499999,22.55796654200003],[-111.08561074599999,22.47629072500007],[-110.97599539399994,22.394503823000036],[-110.86647934099994,22.312606102000075],[-110.75706239099998,22.230597832000058],[-110.64774434199995,22.14847928000006],[-110.53852499699997,22.066250715000024],[-110.42940415099997,21.98391240600006],[-110.32038160699994,21.90146462100006],[-110.21145716199999,21.818907628000034],[-110.10263061499995,21.736241696000036],[-109.99390176199995,21.653467093000074],[-109.88527039999997,21.570584086000054],[-109.77673632599999,21.487592945000074],[-109.66829933499997,21.40449393800003],[-109.55995922399995,21.321287334000033],[-109.45171578599997,21.237973400000044],[-109.34356881599996,21.15455240500006],[-109.23551810899994,21.071024617000035],[-109.12756345599996,20.987390305000076],[-109.01970465199997,20.903649737000023],[-108.91194148799997,20.819803181000054],[-108.80427375599999,20.735850906000053],[-108.69670124799995,20.651793180000027],[-108.58922375299994,20.56763027200003],[-107.80074413499995,19.947906362000026],[-107.79896686299998,19.946504531000073]]}}]}